CCSDS_OMM_VERS = 2.0
CREATION_DATE  = 
ORIGINATOR     = 

OBJECT_NAME    = UNKNOWN
OBJECT_ID      = 
CENTER_NAME    = EARTH
REF_FRAME      = TEME
TIME_SYSTEM    = UTC
MEAN_ELEMENT_THEORY = SGP/SGP4

EPOCH          = 2025-11-12T12:41:00.316896
MEAN_MOTION    = 12.46146212
ECCENTRICITY   = .00899738
INCLINATION    = 101.5927
RA_OF_ASC_NODE = 53.1398
ARG_OF_PERICENTER = 198.8036
MEAN_ANOMALY   = 160.9701

EPHEMERIS_TYPE = 0
CLASSIFICATION_TYPE = U
NORAD_CAT_ID   = 270056
ELEMENT_SET_NO = 999
REV_AT_EPOCH   = 27119
BSTAR          = .43670235E-2
MEAN_MOTION_DOT = .598E-5
MEAN_MOTION_DDOT = 0

CCSDS_OMM_VERS = 2.0
CREATION_DATE  = 
ORIGINATOR     = 

OBJECT_NAME    = UNKNOWN
OBJECT_ID      = 
CENTER_NAME    = EARTH
REF_FRAME      = TEME
TIME_SYSTEM    = UTC
MEAN_ELEMENT_THEORY = SGP/SGP4

EPOCH          = 2025-11-11T09:48:25.784928
MEAN_MOTION    = 12.95997953
ECCENTRICITY   = .00435322
INCLINATION    = 90.2544
RA_OF_ASC_NODE = 8.3200
ARG_OF_PERICENTER = 7.7078
MEAN_ANOMALY   = 352.4701

EPHEMERIS_TYPE = 0
CLASSIFICATION_TYPE = U
NORAD_CAT_ID   = 270057
ELEMENT_SET_NO = 999
REV_AT_EPOCH   = 28193
BSTAR          = -.34108152E-2
MEAN_MOTION_DOT = -.966E-5
MEAN_MOTION_DDOT = 0

CCSDS_OMM_VERS = 2.0
CREATION_DATE  = 
ORIGINATOR     = 

OBJECT_NAME    = UNKNOWN
OBJECT_ID      = 
CENTER_NAME    = EARTH
REF_FRAME      = TEME
TIME_SYSTEM    = UTC
MEAN_ELEMENT_THEORY = SGP/SGP4

EPOCH          = 2025-11-16T20:25:17.251104
MEAN_MOTION    = 12.97909933
ECCENTRICITY   = .00273766
INCLINATION    = 90.2358
RA_OF_ASC_NODE = 0.7066
ARG_OF_PERICENTER = 235.2524
MEAN_ANOMALY   = 124.6018

EPHEMERIS_TYPE = 0
CLASSIFICATION_TYPE = U
NORAD_CAT_ID   = 270058
ELEMENT_SET_NO = 999
REV_AT_EPOCH   = 28299
BSTAR          = .10325332E-2
MEAN_MOTION_DOT = .309E-5
MEAN_MOTION_DDOT = 0

CCSDS_OMM_VERS = 2.0
CREATION_DATE  = 
ORIGINATOR     = 

OBJECT_NAME    = UNKNOWN
OBJECT_ID      = 
CENTER_NAME    = EARTH
REF_FRAME      = TEME
TIME_SYSTEM    = UTC
MEAN_ELEMENT_THEORY = SGP/SGP4

EPOCH          = 2025-11-15T02:01:10.332768
MEAN_MOTION    = 12.22999201
ECCENTRICITY   = .01292628
INCLINATION    = 73.9965
RA_OF_ASC_NODE = 80.0219
ARG_OF_PERICENTER = 76.2049
MEAN_ANOMALY   = 285.3333

EPHEMERIS_TYPE = 0
CLASSIFICATION_TYPE = U
NORAD_CAT_ID   = 270059
ELEMENT_SET_NO = 999
REV_AT_EPOCH   = 26660
BSTAR          = .53741961E-3
MEAN_MOTION_DOT = .45E-6
MEAN_MOTION_DDOT = 0

CCSDS_OMM_VERS = 2.0
CREATION_DATE  = 
ORIGINATOR     = 

OBJECT_NAME    = UNKNOWN
OBJECT_ID      = 
CENTER_NAME    = EARTH
REF_FRAME      = TEME
TIME_SYSTEM    = UTC
MEAN_ELEMENT_THEORY = SGP/SGP4

EPOCH          = 2025-11-06T05:30:24.753888
MEAN_MOTION    = 13.49285873
ECCENTRICITY   = .05381489
INCLINATION    = 30.1016
RA_OF_ASC_NODE = 285.5364
ARG_OF_PERICENTER = 183.8208
MEAN_ANOMALY   = 175.8144

EPHEMERIS_TYPE = 0
CLASSIFICATION_TYPE = U
NORAD_CAT_ID   = 270060
ELEMENT_SET_NO = 999
REV_AT_EPOCH   = 29109
BSTAR          = .15380355E-2
MEAN_MOTION_DOT = .2483E-4
MEAN_MOTION_DDOT = 0

CCSDS_OMM_VERS = 2.0
CREATION_DATE  = 
ORIGINATOR     = 

OBJECT_NAME    = UNKNOWN
OBJECT_ID      = 
CENTER_NAME    = EARTH
REF_FRAME      = TEME
TIME_SYSTEM    = UTC
MEAN_ELEMENT_THEORY = SGP/SGP4

EPOCH          = 2025-11-12T02:04:13.677888
MEAN_MOTION    = 12.22009123
ECCENTRICITY   = .05319107
INCLINATION    = 82.0578
RA_OF_ASC_NODE = 87.6620
ARG_OF_PERICENTER = 182.3173
MEAN_ANOMALY   = 177.5421

EPHEMERIS_TYPE = 0
CLASSIFICATION_TYPE = U
NORAD_CAT_ID   = 270061
ELEMENT_SET_NO = 999
REV_AT_EPOCH   = 26522
BSTAR          = .59355913E-2
MEAN_MOTION_DOT = .1E-4
MEAN_MOTION_DDOT = 0

CCSDS_OMM_VERS = 2.0
CREATION_DATE  = 
ORIGINATOR     = 

OBJECT_NAME    = UNKNOWN
OBJECT_ID      = 
CENTER_NAME    = EARTH
REF_FRAME      = TEME
TIME_SYSTEM    = UTC
MEAN_ELEMENT_THEORY = SGP/SGP4

EPOCH          = 2025-11-18T02:56:06.975744
MEAN_MOTION    = 14.24180016
ECCENTRICITY   = .00366258
INCLINATION    = 98.8382
RA_OF_ASC_NODE = 269.3022
ARG_OF_PERICENTER = 132.0654
MEAN_ANOMALY   = 228.3650

EPHEMERIS_TYPE = 0
CLASSIFICATION_TYPE = U
NORAD_CAT_ID   = 270063
ELEMENT_SET_NO = 999
REV_AT_EPOCH   = 31054
BSTAR          = .2283965E-3
MEAN_MOTION_DOT = .485E-5
MEAN_MOTION_DDOT = 0

CCSDS_OMM_VERS = 2.0
CREATION_DATE  = 
ORIGINATOR     = 

OBJECT_NAME    = UNKNOWN
OBJECT_ID      = 
CENTER_NAME    = EARTH
REF_FRAME      = TEME
TIME_SYSTEM    = UTC
MEAN_ELEMENT_THEORY = SGP/SGP4

EPOCH          = 2025-11-16T21:00:49.826880
MEAN_MOTION    = 14.47424962
ECCENTRICITY   = .0010872
INCLINATION    = 97.9914
RA_OF_ASC_NODE = 188.7861
ARG_OF_PERICENTER = 171.1553
MEAN_ANOMALY   = 188.9835

EPHEMERIS_TYPE = 0
CLASSIFICATION_TYPE = U
NORAD_CAT_ID   = 270064
ELEMENT_SET_NO = 999
REV_AT_EPOCH   = 31475
BSTAR          = .31101273E-3
MEAN_MOTION_DOT = .1102E-4
MEAN_MOTION_DDOT = 0

CCSDS_OMM_VERS = 2.0
CREATION_DATE  = 
ORIGINATOR     = 

OBJECT_NAME    = UNKNOWN
OBJECT_ID      = 
CENTER_NAME    = EARTH
REF_FRAME      = TEME
TIME_SYSTEM    = UTC
MEAN_ELEMENT_THEORY = SGP/SGP4

EPOCH          = 2025-11-16T13:51:41.044032
MEAN_MOTION    = 12.22964568
ECCENTRICITY   = .01316549
INCLINATION    = 74.0010
RA_OF_ASC_NODE = 79.5189
ARG_OF_PERICENTER = 75.1081
MEAN_ANOMALY   = 286.4491

EPHEMERIS_TYPE = 0
CLASSIFICATION_TYPE = U
NORAD_CAT_ID   = 270065
ELEMENT_SET_NO = 999
REV_AT_EPOCH   = 26672
BSTAR          = .48934765E-3
MEAN_MOTION_DOT = .4E-6
MEAN_MOTION_DDOT = 0

CCSDS_OMM_VERS = 2.0
CREATION_DATE  = 
ORIGINATOR     = 

OBJECT_NAME    = UNKNOWN
OBJECT_ID      = 
CENTER_NAME    = EARTH
REF_FRAME      = TEME
TIME_SYSTEM    = UTC
MEAN_ELEMENT_THEORY = SGP/SGP4

EPOCH          = 2025-11-16T16:42:08.733888
MEAN_MOTION    = 14.62781695
ECCENTRICITY   = .00096845
INCLINATION    = 32.2216
RA_OF_ASC_NODE = 103.9613
ARG_OF_PERICENTER = 157.1527
MEAN_ANOMALY   = 202.9552

EPHEMERIS_TYPE = 0
CLASSIFICATION_TYPE = U
NORAD_CAT_ID   = 270066
ELEMENT_SET_NO = 999
REV_AT_EPOCH   = 31937
BSTAR          = .22543601E-3
MEAN_MOTION_DOT = .1205E-4
MEAN_MOTION_DDOT = 0

CCSDS_OMM_VERS = 2.0
CREATION_DATE  = 
ORIGINATOR     = 

OBJECT_NAME    = UNKNOWN
OBJECT_ID      = 
CENTER_NAME    = EARTH
REF_FRAME      = TEME
TIME_SYSTEM    = UTC
MEAN_ELEMENT_THEORY = SGP/SGP4

EPOCH          = 2025-11-13T02:27:33.660288
MEAN_MOTION    = 12.96441952
ECCENTRICITY   = .00282069
INCLINATION    = 90.2502
RA_OF_ASC_NODE = 8.9256
ARG_OF_PERICENTER = 330.7131
MEAN_ANOMALY   = 29.2407

EPHEMERIS_TYPE = 0
CLASSIFICATION_TYPE = U
NORAD_CAT_ID   = 270067
ELEMENT_SET_NO = 999
REV_AT_EPOCH   = 28219
BSTAR          = .11951426E-4
MEAN_MOTION_DOT = .11E-6
MEAN_MOTION_DDOT = 0

CCSDS_OMM_VERS = 2.0
CREATION_DATE  = 
ORIGINATOR     = 

OBJECT_NAME    = UNKNOWN
OBJECT_ID      = 
CENTER_NAME    = EARTH
REF_FRAME      = TEME
TIME_SYSTEM    = UTC
MEAN_ELEMENT_THEORY = SGP/SGP4

EPOCH          = 2025-11-16T08:41:25.285344
MEAN_MOTION    = 12.67796903
ECCENTRICITY   = .07790102
INCLINATION    = 73.1510
RA_OF_ASC_NODE = 197.2136
ARG_OF_PERICENTER = 186.2131
MEAN_ANOMALY   = 172.8815

EPHEMERIS_TYPE = 0
CLASSIFICATION_TYPE = U
NORAD_CAT_ID   = 270068
ELEMENT_SET_NO = 999
REV_AT_EPOCH   = 27538
BSTAR          = .24759603E-2
MEAN_MOTION_DOT = .1595E-4
MEAN_MOTION_DDOT = 0

CCSDS_OMM_VERS = 2.0
CREATION_DATE  = 
ORIGINATOR     = 

OBJECT_NAME    = UNKNOWN
OBJECT_ID      = 
CENTER_NAME    = EARTH
REF_FRAME      = TEME
TIME_SYSTEM    = UTC
MEAN_ELEMENT_THEORY = SGP/SGP4

EPOCH          = 2025-11-05T03:58:21.916416
MEAN_MOTION    = 14.10492885
ECCENTRICITY   = .00610801
INCLINATION    = 46.9551
RA_OF_ASC_NODE = 119.7217
ARG_OF_PERICENTER = 171.4926
MEAN_ANOMALY   = 188.6988

EPHEMERIS_TYPE = 0
CLASSIFICATION_TYPE = U
NORAD_CAT_ID   = 270069
ELEMENT_SET_NO = 999
REV_AT_EPOCH   = 30282
BSTAR          = .40534664E-2
MEAN_MOTION_DOT = .7257E-4
MEAN_MOTION_DDOT = 0

CCSDS_OMM_VERS = 2.0
CREATION_DATE  = 
ORIGINATOR     = 

OBJECT_NAME    = UNKNOWN
OBJECT_ID      = 
CENTER_NAME    = EARTH
REF_FRAME      = TEME
TIME_SYSTEM    = UTC
MEAN_ELEMENT_THEORY = SGP/SGP4

EPOCH          = 2025-11-16T05:53:58.084224
MEAN_MOTION    = 13.50022676
ECCENTRICITY   = .07174333
INCLINATION    = 62.7999
RA_OF_ASC_NODE = 155.5091
ARG_OF_PERICENTER = 342.7900
MEAN_ANOMALY   = 14.9887

EPHEMERIS_TYPE = 0
CLASSIFICATION_TYPE = U
NORAD_CAT_ID   = 270070
ELEMENT_SET_NO = 999
REV_AT_EPOCH   = 29368
BSTAR          = .48652975E-3
MEAN_MOTION_DOT = .1503E-4
MEAN_MOTION_DDOT = 0

CCSDS_OMM_VERS = 2.0
CREATION_DATE  = 
ORIGINATOR     = 

OBJECT_NAME    = UNKNOWN
OBJECT_ID      = 
CENTER_NAME    = EARTH
REF_FRAME      = TEME
TIME_SYSTEM    = UTC
MEAN_ELEMENT_THEORY = SGP/SGP4

EPOCH          = 2025-11-15T03:56:20.103648
MEAN_MOTION    = 11.27807342
ECCENTRICITY   = .01465194
INCLINATION    = 64.7987
RA_OF_ASC_NODE = 271.7586
ARG_OF_PERICENTER = 69.7618
MEAN_ANOMALY   = 291.8991

EPHEMERIS_TYPE = 0
CLASSIFICATION_TYPE = U
NORAD_CAT_ID   = 270071
ELEMENT_SET_NO = 999
REV_AT_EPOCH   = 24594
BSTAR          = .60776446E-3
MEAN_MOTION_DOT = -.21E-6
MEAN_MOTION_DDOT = 0

CCSDS_OMM_VERS = 2.0
CREATION_DATE  = 
ORIGINATOR     = 

OBJECT_NAME    = UNKNOWN
OBJECT_ID      = 
CENTER_NAME    = EARTH
REF_FRAME      = TEME
TIME_SYSTEM    = UTC
MEAN_ELEMENT_THEORY = SGP/SGP4

EPOCH          = 2025-11-09T04:33:19.380960
MEAN_MOTION    = 11.27760531
ECCENTRICITY   = .01489688
INCLINATION    = 64.8112
RA_OF_ASC_NODE = 290.8112
ARG_OF_PERICENTER = 52.2949
MEAN_ANOMALY   = 309.1375

EPHEMERIS_TYPE = 0
CLASSIFICATION_TYPE = U
NORAD_CAT_ID   = 270072
ELEMENT_SET_NO = 999
REV_AT_EPOCH   = 24519
BSTAR          = .78907508E-3
MEAN_MOTION_DOT = -.15E-6
MEAN_MOTION_DDOT = 0

